
# Worst residual: 11.14 km
# MJD 59244.000000 (2021 Jan 30  0:00)
1964-040B = NORAD 00837 = Vela 2B
1 00837U 64040B   21030.49919926  .00000000  00000-0  00000-0 0 12957
2 00837 042.4428 158.5988 4559192 315.3395 127.0989 00.23979764    05

# Worst residual: 3.97 km
# MJD 59245.000000 (2021 Jan 31  0:00)
1964-040B = NORAD 00837 = Vela 2B
1 00837U 64040B   21031.49919926  .00000000  00000-0  00000-0 0 12958
2 00837 042.4478 158.5828 4555282 315.2842 213.5818 00.23984828    04

# Worst residual: 16.08 km
# MJD 59246.000000 (2021 Feb  1  0:00)
1964-040B = NORAD 00837 = Vela 2B
1 00837U 64040B   21032.49919926  .00000000  00000-0  00000-0 0 12959
2 00837 042.4621 158.5576 4548772 315.4259 299.7334 00.24024696    02

# Worst residual: 15.77 km
# MJD 59247.000000 (2021 Feb  2  0:00)
1964-040B = NORAD 00837 = Vela 2B
1 00837U 64040B   21033.49919926  .00000000  00000-0  00000-0 0 12950
2 00837 042.4714 158.5395 4548393 315.3772 026.2165 00.23988567    02

# Worst residual: 7.33 km
# MJD 59248.000000 (2021 Feb  3  0:00)
1964-040B = NORAD 00837 = Vela 2B
1 00837U 64040B   21034.49919926  .00000000  00000-0  00000-0 0 12951
2 00837 042.4780 158.5088 4546123 315.3265 112.6818 00.23995931    08

# Worst residual: 2.20 km
# MJD 59249.000000 (2021 Feb  4  0:00)
1964-040B = NORAD 00837 = Vela 2B
1 00837U 64040B   21035.49919926  .00000000  00000-0  00000-0 0 12952
2 00837 042.4790 158.5024 4540741 315.2511 199.2512 00.23999445    08

# Worst residual: 13.93 km
# MJD 59250.000000 (2021 Feb  5  0:00)
1964-040B = NORAD 00837 = Vela 2B
1 00837U 64040B   21036.49919926  .00000000  00000-0  00000-0 0 12953
2 00837 042.4745 158.4858 4534293 315.3146 285.5350 00.24015169    04

# Worst residual: 19.15 km
# MJD 59251.000000 (2021 Feb  6  0:00)
1964-040B = NORAD 00837 = Vela 2B
1 00837U 64040B   21037.49919926  .00000000  00000-0  00000-0 0 12954
2 00837 042.4849 158.4956 4523577 315.1996 012.0243 00.24029478    04

# Worst residual: 3.21 km
# MJD 59252.000000 (2021 Feb  7  0:00)
1964-040B = NORAD 00837 = Vela 2B
1 00837U 64040B   21038.49919926  .00000000  00000-0  00000-0 0 12955
2 00837 042.4728 158.4466 4526955 315.1727 098.4778 00.24010757    02

# Worst residual: 2.50 km
# MJD 59253.000000 (2021 Feb  8  0:00)
1964-040B = NORAD 00837 = Vela 2B
1 00837U 64040B   21039.49919926  .00000000  00000-0  00000-0 0 12956
2 00837 042.4865 158.4094 4521879 315.1861 184.9366 00.24005355    02

# Worst residual: 9.65 km
# MJD 59254.000000 (2021 Feb  9  0:00)
1964-040B = NORAD 00837 = Vela 2B
1 00837U 64040B   21040.49919926  .00000000  00000-0  00000-0 0 12958
2 00837 042.5255 158.3657 4519169 315.2725 271.2645 00.24022130    09

# Worst residual: 24.96 km
# MJD 59255.000000 (2021 Feb 10  0:00)
1964-040B = NORAD 00837 = Vela 2B
1 00837U 64040B   21041.49919926  .00000000  00000-0  00000-0 0 12959
2 00837 042.5587 158.3799 4519139 315.2145 357.7836 00.23996521    02

# Worst residual: 14.80 km
# MJD 59256.000000 (2021 Feb 11  0:00)
1964-040B = NORAD 00837 = Vela 2B
1 00837U 64040B   21042.49919926  .00000000  00000-0  00000-0 0 12950
2 00837 042.5379 158.3515 4517366 315.2964 084.0689 00.23951799    00

# Worst residual: 8.39 km
# MJD 59257.000000 (2021 Feb 12  0:00)
1964-040B = NORAD 00837 = Vela 2B
1 00837U 64040B   21043.49919926  .00000000  00000-0  00000-0 0 12951
2 00837 042.5438 158.3432 4512922 315.0610 170.8914 00.23997772    09

# Worst residual: 15.29 km
# MJD 59258.000000 (2021 Feb 13  0:00)
1964-040B = NORAD 00837 = Vela 2B
1 00837U 64040B   21044.49919926  .00000000  00000-0  00000-0 0 12952
2 00837 042.5548 158.3169 4501212 315.0171 257.3231 00.23981088    06

# Worst residual: 12.55 km
# MJD 59259.000000 (2021 Feb 14  0:00)
1964-040B = NORAD 00837 = Vela 2B
1 00837U 64040B   21045.49919926  .00000000  00000-0  00000-0 0 12953
2 00837 042.5688 158.2932 4487949 315.0858 343.5539 00.24020132    04

# Worst residual: 9.31 km
# MJD 59260.000000 (2021 Feb 15  0:00)
1964-040B = NORAD 00837 = Vela 2B
1 00837U 64040B   21046.49919926  .00000000  00000-0  00000-0 0 12954
2 00837 042.5769 158.2742 4492825 315.1758 069.8196 00.23941349    00

# Worst residual: 7.46 km
# MJD 59261.000000 (2021 Feb 16  0:00)
1964-040B = NORAD 00837 = Vela 2B
1 00837U 64040B   21047.49919926  .00000000  00000-0  00000-0 0 12955
2 00837 042.5883 158.2499 4490049 314.9847 156.4918 00.23989637    05

# Worst residual: 2.25 km
# MJD 59262.000000 (2021 Feb 17  0:00)
1964-040B = NORAD 00837 = Vela 2B
1 00837U 64040B   21048.49919926  .00000000  00000-0  00000-0 0 12956
2 00837 042.6019 158.2203 4491979 314.9332 243.0487 00.24002526    00

# Worst residual: 10.30 km
# MJD 59263.000000 (2021 Feb 18  0:00)
1964-040B = NORAD 00837 = Vela 2B
1 00837U 64040B   21049.49919926  .00000000  00000-0  00000-0 0 12957
2 00837 042.6118 158.1976 4484201 314.9853 329.4072 00.24030955    00

# Worst residual: 5.42 km
# MJD 59264.000000 (2021 Feb 19  0:00)
1964-040B = NORAD 00837 = Vela 2B
1 00837U 64040B   21050.49919926  .00000000  00000-0  00000-0 0 12959
2 00837 042.6101 158.1835 4486620 314.9183 055.8849 00.23994092    01

# Worst residual: 1.14 km
# MJD 59265.000000 (2021 Feb 20  0:00)
1964-040B = NORAD 00837 = Vela 2B
1 00837U 64040B   21051.49919926  .00000000  00000-0  00000-0 0 12950
2 00837 042.6193 158.1434 4485029 314.9190 142.2870 00.23993367    06

# Worst residual: 6.02 km
# MJD 59266.000000 (2021 Feb 21  0:00)
1964-040B = NORAD 00837 = Vela 2B
1 00837U 64040B   21052.49919926  .00000000  00000-0  00000-0 0 12951
2 00837 042.6356 158.1086 4483465 314.9538 228.6350 00.23999689    03

# Worst residual: 8.74 km
# MJD 59267.000000 (2021 Feb 22  0:00)
1964-040B = NORAD 00837 = Vela 2B
1 00837U 64040B   21053.49919926  .00000000  00000-0  00000-0 0 12952
2 00837 042.6617 158.0858 4477628 315.0465 314.9362 00.24030601    07

# Worst residual: 14.15 km
# MJD 59268.000000 (2021 Feb 23  0:00)
1964-040B = NORAD 00837 = Vela 2B
1 00837U 64040B   21054.49919926  .00000000  00000-0  00000-0 0 12953
2 00837 042.6497 158.1015 4481976 315.0012 041.3863 00.23969479    08

# Worst residual: 5.23 km
# MJD 59269.000000 (2021 Feb 24  0:00)
1964-040B = NORAD 00837 = Vela 2B
1 00837U 64040B   21055.49919926  .00000000  00000-0  00000-0 0 12954
2 00837 042.6526 158.0465 4472434 314.9885 127.8787 00.23983479    05

# Worst residual: 4.51 km
# MJD 59270.000000 (2021 Feb 25  0:00)
1964-040B = NORAD 00837 = Vela 2B
1 00837U 64040B   21056.49919926  .00000000  00000-0  00000-0 0 12955
2 00837 042.6583 158.0271 4469200 314.9727 214.2802 00.23987275    02

# Worst residual: 12.17 km
# MJD 59271.000000 (2021 Feb 26  0:00)
1964-040B = NORAD 00837 = Vela 2B
1 00837U 64040B   21057.49919926  .00000000  00000-0  00000-0 0 12956
2 00837 042.6644 158.0046 4462673 315.1068 300.4471 00.24023782    03

# Worst residual: 18.82 km
# MJD 59272.000000 (2021 Feb 27  0:00)
1964-040B = NORAD 00837 = Vela 2B
1 00837U 64040B   21058.49919926  .00000000  00000-0  00000-0 0 12957
2 00837 042.6708 157.9947 4471523 315.1217 026.8650 00.23939081    07
